ONEWEB-0403             
1 50483U 21132Q   25318.61476075  .00000069  00000+0  14119-3 0  9997
2 50483  87.9216  18.0692 0001704  98.9246 261.2079 13.18688177193315
ONEWEB-0404             
1 50484U 21132R   25318.55607851 -.00000553  00000+0 -15961-2 0  9994
2 50484  87.8859  63.8126 0001192 103.9384 256.1876 13.11416310187568
ONEWEB-0405             
1 50485U 21132S   25318.40198036  .00000051  00000+0  97736-4 0  9992
2 50485  87.9213  18.0958 0001799 109.4599 250.6727 13.18688396193687
ONEWEB-0406             
1 50486U 21132T   25318.46795530  .00000015  00000+0  65181-5 0  9991
2 50486  87.9222  18.1071 0001433  86.4942 273.6354 13.18688274193323
ONEWEB-0407             
1 50487U 21132U   25318.46136096  .00000127  00000+0  29005-3 0  9995
2 50487  87.9218  18.0923 0001965 101.8330 258.3023 13.18688256193263
ONEWEB-0409             
1 50488U 21132V   25318.55439748 -.00000488  00000+0 -14139-2 0  9999
2 50488  87.8878  63.7790 0001250  93.2474 266.8797 13.11416205187456
ONEWEB-0412             
1 50489U 21132W   25318.60155625  .00000057  00000+0  11224-3 0  9998
2 50489  87.9220  18.0775 0001962 111.5068 248.6274 13.18687591193379
ONEWEB-0413             
1 50490U 21132X   25318.45477204  .00000137  00000+0  31564-3 0  9991
2 50490  87.9208  18.1219 0002059 107.8423 252.2934 13.18685617193294
